[{"OBJECT_NAME":"STARLINK-4360","OBJECT_ID":"2022-099T","EPOCH":"2026-03-09T21:25:07.915872","MEAN_MOTION":15.01254837,"ECCENTRICITY":2.719e-5,"INCLINATION":97.6052,"RA_OF_ASC_NODE":190.4373,"ARG_OF_PERICENTER":3.0306,"MEAN_ANOMALY":357.0919,"EPHEMERIS_TYPE":0,"CLASSIFICATION_TYPE":"U","NORAD_CAT_ID":53482,"ELEMENT_SET_NO":999,"REV_AT_EPOCH":19601,"BSTAR":7.3224794e-5,"MEAN_MOTION_DOT":8.82e-6,"MEAN_MOTION_DDOT":0},{"OBJECT_NAME":"HAWK-8C","OBJECT_ID":"2024-066H","EPOCH":"2026-03-09T11:22:19.381152","MEAN_MOTION":14.98770227,"ECCENTRICITY":0.00039352,"INCLINATION":45.6068,"RA_OF_ASC_NODE":72.8656,"ARG_OF_PERICENTER":260.2975,"MEAN_ANOMALY":99.7462,"EPHEMERIS_TYPE":0,"CLASSIFICATION_TYPE":"U","NORAD_CAT_ID":59449,"ELEMENT_SET_NO":999,"REV_AT_EPOCH":10486,"BSTAR":0.00021518384,"MEAN_MOTION_DOT":2.4e-5,"MEAN_MOTION_DDOT":0}]
